API VERSION: 1.0
API SOURCE: NASA/JPL Horizons API

*******************************************************************************
JPL/HORIZONS                     (2005 VL1)                2024-Jun-26 07:53:10
Rec #:50030445 (+COV) Soln.date: 2022-Dec-20_14:27:33     # obs: 79 (2005-2021)
 
IAU76/J2000 helio. ecliptic osc. elements (au, days, deg., period=Julian yrs):
 
  EPOCH=  2457737.5 ! 2016-Dec-15.00 (TDB)         Residual RMS= .13657
   EC= .2253857220496932   QR= .6906799042446253   TP= 2457883.602235191
   OM= 39.81232963001098   W=  226.4606875105024   IN= .2472171504411504
   A= .8916436527250973    MA= 188.9693483046568   ADIST= 1.092607401205569
   PER= .84197             N= 1.170623101          ANGMOM= .015825457
   DAN= 1.0019             DDN= .73261             L= 266.2727508
   B= -.1792079            MOID= .00019191         TP= 2017-May-10.1022351910
 
Asteroid physical parameters (km, seconds, rotational period in hours):
   GM= n.a.                RAD= n.a.               ROTPER= n.a.
   H= 26.45                G= .150                 B-V= n.a.
                           ALBEDO= n.a.            STYP= n.a.

Asteroid non-gravitational force model (AMRAT= m^2/kg;A1,A2,A3=au/d^2;R0=au):
   AMRAT=  0.
   A1= -8.298571407795E-10 A2= -8.320601773448E-13 A3= -2.414488699287E-11
 Non-standard or simulated/proxy model:
   ALN=  1.            NK=  0.       NM=  2.       NN=  0.       R0=  1.

ASTEROID comments: 
1: soln ref.= JPL#24, OCC=4
2: source=ORB; Nongravitational accels. using nonstandard g(r) = (1 au/ r)^2
*******************************************************************************


*******************************************************************************
Ephemeris / WWW_USER Wed Jun 26 07:53:11 2024 Pasadena, USA      / Horizons
*******************************************************************************
Target body name: (2005 VL1)                      {source: JPL#24}
Center body name: Sun (10)                        {source: DE441}
Center-site name: BODY CENTER
*******************************************************************************
Start time      : A.D. 2024-Jan-01 00:00:00.0000 TDB
Stop  time      : A.D. 2044-Jan-01 00:00:00.0000 TDB
Step-size       : 1440 minutes
*******************************************************************************
Center geodetic : 0.0, 0.0, 0.0                   {E-lon(deg),Lat(deg),Alt(km)}
Center cylindric: 0.0, 0.0, 0.0                   {E-lon(deg),Dxy(km),Dz(km)}
Center radii    : 695700.0, 695700.0, 695700.0 km {Equator_a, b, pole_c}
Small perturbers: Yes                             {source: SB441-N16}
Output units    : KM-S
Calendar mode   : Mixed Julian/Gregorian
Output type     : GEOMETRIC cartesian states
Output format   : 3 (position, velocity, LT, range, range-rate)
Reference frame : Ecliptic of J2000.0
*******************************************************************************
Initial IAU76/J2000 heliocentric ecliptic osculating elements (au, days, deg.):
  EPOCH=  2457737.5 ! 2016-Dec-15.00 (TDB)         Residual RMS= .13657        
   EC= .2253857220496932   QR= .6906799042446253   TP= 2457883.602235191       
   OM= 39.81232963001098   W=  226.4606875105024   IN= .2472171504411504       
  Equivalent ICRF heliocentric cartesian coordinates (au, au/d):
   X=-3.994274659800397E-02  Y= 9.987854952077390E-01  Z= 4.370852088989626E-01
  VX=-1.448044261131514E-02 VY=-8.942261598397332E-04 VZ=-3.475554097658720E-04
Asteroid physical parameters (km, seconds, rotational period in hours):        
   GM= n.a.                RAD= n.a.               ROTPER= n.a.                
   H= 26.45                G= .150                 B-V= n.a.                   
                           ALBEDO= n.a.            STYP= n.a.                  
Asteroid non-gravitational force model (AMRAT= m^2/kg;A1,A2,A3=au/d^2;R0=au):  
   AMRAT=  0.                                                                  
   A1= -8.298571407795E-10 A2= -8.320601773448E-13 A3= -2.414488699287E-11     
 Non-standard or simulated/proxy model:                                        
   ALN=  1.            NK=  0.       NM=  2.       NN=  0.       R0=  1.       
*******************************************************************************
JDTDB
   X     Y     Z
   VX    VY    VZ
   LT    RG    RR
*******************************************************************************
$$SOE
2465117.500000000 = A.D. 2037-Feb-28 00:00:00.0000 TDB 
 X = 1.507695727751427E+06 Y = 1.631963588613031E+08 Z = 4.898836231899783E+05
 VX=-2.514336919941452E+01 VY=-3.016012942416798E-01 VZ= 5.068153413046225E-02
 LT= 5.443901407258478E+02 RG= 1.632040583991678E+08 RR=-5.337119442503290E-01
2465118.500000000 = A.D. 2037-Mar-01 00:00:00.0000 TDB 
 X =-6.647807155073154E+05 Y = 1.631517004857138E+08 Z = 4.942065044085160E+05
 VX=-2.514448200899575E+01 VY=-7.322040814024423E-01 VZ= 4.938305988069380E-02
 LT= 5.442225078979777E+02 RG= 1.631538033416592E+08 RR=-6.295922418546436E-01
2465119.500000000 = A.D. 2037-Mar-02 00:00:00.0000 TDB 
 X =-2.837105519660159E+06 Y = 1.630698263956589E+08 Z = 4.984166539840624E+05
 VX=-2.513985714412560E+01 VY=-1.163070763876441E+00 VZ= 4.807201773549719E-02
 LT= 5.440272491209992E+02 RG= 1.630952662329627E+08 RR=-7.254248570335825E-01
2465120.500000000 = A.D. 2037-Mar-03 00:00:00.0000 TDB 
 X =-5.008782440300502E+06 Y = 1.629507151939497E+08 Z = 5.025129892278463E+05
 VX=-2.512948259185177E+01 VY=-1.594168818812499E+00 VZ= 4.674848089084782E-02
 LT= 5.438043792082901E+02 RG= 1.630284515140174E+08 RR=-8.212023426788235E-01
2465121.500000000 = A.D. 2037-Mar-04 00:00:00.0000 TDB 
 X =-7.179314137286371E+06 Y = 1.627943483037955E+08 Z = 5.064944336850643E+05
 VX=-2.511334500015063E+01 VY=-2.025465473966808E+00 VZ= 4.541252047709465E-02
 LT= 5.435539151307651E+02 RG= 1.629533642725754E+08 RR=-9.169171715495417E-01
2465122.500000000 = A.D. 2037-Mar-05 00:00:00.0000 TDB 
 X =-9.348202058854645E+06 Y = 1.626007099924603E+08 Z = 5.103599169620723E+05
 VX=-2.509142967352312E+01 VY=-2.456927658778642E+00 VZ= 4.406420569026481E-02
 LT= 5.432758760415477E+02 RG= 1.628700102505989E+08 RR=-1.012561725303394E+00
2465123.500000000 = A.D. 2037-Mar-06 00:00:00.0000 TDB 
 X =-1.151494632535336E+07 Y = 1.623697873991717E+08 Z = 5.141083745649904E+05
 VX=-2.506372056855968E+01 VY=-2.888521954869835E+00 VZ= 4.270360392607753E-02
 LT= 5.429702833038225E+02 RG= 1.627783958526094E+08 RR=-1.108128283389404E+00
2465124.500000000 = A.D. 2037-Mar-07 00:00:00.0000 TDB 
 X =-1.367904561259010E+07 Y = 1.621015705673338E+08 Z = 5.177387477501258E+05
 VX=-2.503020028949271E+01 VY=-3.320214545894497E+00 VZ= 4.133078091779230E-02
 LT= 5.426371605219115E+02 RG= 1.626785281550044E+08 RR=-1.203609011783336E+00
2465125.500000000 = A.D. 2037-Mar-08 00:00:00.0000 TDB 
 X =-1.583999703479647E+07 Y = 1.617960524811042E+08 Z = 5.212499833864346E+05
 VX=-2.499085008375983E+01 VY=-3.751971166660817E+00 VZ= 3.994580087954436E-02
 LT= 5.422765335756205E+02 RG= 1.625704149163548E+08 RR=-1.298995951541700E+00
2465126.500000000 = A.D. 2037-Mar-09 00:00:00.0000 TDB 
 X =-1.799729602721059E+07 Y = 1.614532291064001E+08 Z = 5.246410338307545E+05
 VX=-2.494564983760608E+01 VY=-4.183757051451380E+00 VZ= 3.854872665659803E-02
 LT= 5.418884306579150E+02 RG= 1.624540645886989E+08 RR=-1.394281007155011E+00
2465127.500000000 = A.D. 2037-Mar-10 00:00:00.0000 TDB 
 X =-2.015043622828266E+07 Y = 1.610730994364087E+08 Z = 5.279108568162844E+05
 VX=-2.489457807176218E+01 VY=-4.615536881464480E+00 VZ= 3.713961988474512E-02
 LT= 5.414728823159833E+02 RG= 1.623294863298533E+08 RR=-1.489455934676187E+00
2465128.500000000 = A.D. 2037-Mar-11 00:00:00.0000 TDB 
 X =-2.229890936151192E+07 Y = 1.606556655416775E+08 Z = 5.310584153554291E+05
 VX=-2.483761193723822E+01 VY=-5.047274731303979E+00 VZ= 3.571854116049633E-02
 LT= 5.410299214957554E+02 RG= 1.621966900167596E+08 RR=-1.584512329604428E+00
2465129.500000000 = A.D. 2037-Mar-12 00:00:00.0000 TDB 
 X =-2.444220511692681E+07 Y = 1.602009326248722E+08 Z = 5.340826776577383E+05
 VX=-2.477472721128625E+01 VY=-5.478934014451682E+00 VZ= 3.428555022413216E-02
 LT= 5.405595835899525E+02 RG= 1.620556862598883E+08 RR=-1.679441614508929E+00
2465130.500000000 = A.D. 2037-Mar-13 00:00:00.0000 TDB 
 X =-2.657981103222552E+07 Y = 1.597089090802922E+08 Z = 5.369826170644015E+05
 VX=-2.470589829357789E+01 VY=-5.910477427657490E+00 VZ= 3.284070615643975E-02
 LT= 5.400619064897402E+02 RG= 1.619064864187253E+08 RR=-1.774235026377700E+00
2465131.500000000 = A.D. 2037-Mar-14 00:00:00.0000 TDB 
 X =-2.871121237359754E+07 Y = 1.591796065582390E+08 Z = 5.397572120002061E+05
 VX=-2.463109820265390E+01 VY=-6.341866894200585E+00 VZ= 3.138406758906598E-02
 LT= 5.395369306400706E+02 RG= 1.617491026183622E+08 RR=-1.868883603692385E+00
2465132.500000000 = A.D. 2037-Mar-15 00:00:00.0000 TDB 
 X =-3.083589201625191E+07 Y = 1.586130400343373E+08 Z = 5.424054459443241E+05
 VX=-2.455029857269995E+01 VY=-6.773063505966055E+00 VZ= 2.991569292839635E-02
 LT= 5.389846990987863E+02 RG= 1.615835477672155E+08 RR=-1.963378173220111E+00
2465133.500000000 = A.D. 2037-Mar-16 00:00:00.0000 TDB 
 X =-3.295333032468253E+07 Y = 1.580092278839135E+08 Z = 5.449263074207753E+05
 VX=-2.446346965067250E+01 VY=-7.204027464322919E+00 VZ= 2.843564058621206E-02
 LT= 5.384052575995715E+02 RG= 1.614098355758987E+08 RR=-2.057709336559687E+00
2465134.500000000 = A.D. 2037-Mar-17 00:00:00.0000 TDB 
 X =-3.506300503270151E+07 Y = 1.573681919615351E+08 Z = 5.473187900091708E+05
 VX=-2.437058029382648E+01 VY=-7.634718019738055E+00 VZ= 2.694396921678655E-02
 LT= 5.377986546188143E+02 RG= 1.612279805772674E+08 RR=-2.151867456425387E+00
2465135.500000000 = A.D. 2037-Mar-18 00:00:00.0000 TDB 
 X =-3.716439112327628E+07 Y = 1.566899576858236E+08 Z = 5.495818923757076E+05
 VX=-2.427159796763157E+01 VY=-8.065093410110348E+00 VZ= 2.544073794951318E-02
 LT= 5.371649414464561E+02 RG= 1.610379981476592E+08 RR=-2.245842642715311E+00
